{
  "norad_id": 51951,
  "name": "2022-023F",
  "history": [
    {
      "epoch": "2026-03-26T19:04:44.696064",
      "apogee_km": 596.452539372608,
      "perigee_km": 427.5543883788132,
      "latitude_deg": -62.15966395048584,
      "longitude_deg": -20.583671039901674,
      "semi_major_axis_km": 6890.14046387571,
      "eccentricity": 0.01225651,
      "inclination_deg": 63.453,
      "raan_deg": 193.5331,
      "arg_perigee_deg": 344.2108,
      "mean_anomaly_deg": 15.5196,
      "mean_motion_rev_day": 15.17961122
    }
  ]
}