{"fetched_at":"2026-03-28T16:33:49Z","count":6709,"tles":[{"name":"2022-023F","line1":"1 51951U 22023F   26085.79496176  .00017444  00000+0  70958-3 0  9991","line2":"2 51951  63.4530 193.5331 0122565 344.2108  15.5196 15.17961122225205","category":"Other"}]}